CUBEBUG-2 (LO-74)       
1 39440U 13066AA  26154.33051700  .00005093  00000+0  47123-3 0  9999
2 39440  97.8904 103.2522 0059453  73.9566 286.8190 14.93641817674922
FUNCUBE-1 (AO-73)       
1 39444U 13066AE  26156.19019629  .00006789  00000+0  42375-3 0  9990
2 39444  97.8278 127.3873 0034649 243.1680 116.6003 15.09338913677850
UWE-3                   
1 39446U 13066AG  26155.64928530  .00004713  00000+0  40572-3 0  9993
2 39446  97.8702 111.6406 0049326   3.6109 356.5458 14.96922367675703
UNISAT-6                
1 40012U 14033C   26156.23252667  .00003629  00000+0  39191-3 0  9996
2 40012  97.7872 309.1565 0046441 107.6256 253.0041 14.88176756644387
DUCHIFAT-1              
1 40021U 14033M   26155.66830056  .00095076  00000+0  10761-2 0  9994
2 40021  98.0472 213.0954 0004852 139.0185 221.1436 15.62101054653793
QB50P1                  
1 40025U 14033R   26156.28625996  .00008026  00000+0  39735-3 0  9994
2 40025  98.0971 166.5996 0007024 264.5036  95.5395 15.18070423651221
LILACSAT-2              
1 40908U 15049K   26156.33859483  .00016994  00000+0  29366-3 0  9990
2 40908  97.4655 192.7326 0005356 302.9708  57.1028 15.51036748593917
FOX-1A (AO-85)          
1 40967U 15058D   26155.94350760  .00003528  00000+0  31879-3 0  9996
2 40967  64.7764 317.0315 0129804  61.3870 300.0228 14.90905473111742
CAS-2T & KS-1Q          
1 41847U 16066G   26155.63484800  .00001982  00000+0  28545-3 0  9991
2 41847  98.3817 231.5141 0342302 167.4688 193.5290 14.44651724502984
RADFXSAT (FOX-1B)       
1 43017U 17073E   26155.17612321  .00011345  00000+0  49455-3 0  9998
2 43017  97.4712  22.6585 0151546  14.2510 346.2924 15.12484658463423
DIWATA-2B               
1 43678U 18084H   26156.29922903  .00002589  00000+0  21100-3 0  9995
2 43678  98.1156 351.9927 0011793 209.9241 150.1309 15.00392928414438
ES'HAIL 2               
1 43700U 18090A   26156.28311360  .00000157  00000+0  00000+0 0  9997
2 43700   0.0175   6.4775 0001967 100.9409 274.0118  1.00272986 27551
FOX-1CLIFF (AO-95)      
1 43770U 18099N   26156.08244416  .00010962  00000+0  42280-3 0  9993
2 43770  97.4389 216.3757 0009283  40.1659 320.0264 15.26442922411371
ITASAT                  
1 43786U 18099AE  26156.09819547  .00007290  00000+0  35179-3 0  9993
2 43786  97.4029 207.8521 0013347  41.4344 318.7900 15.18896335411074
JY1SAT (JO-97)          
1 43803U 18099AX  26156.08899901  .00015845  00000+0  49499-3 0  9999
2 43803  97.4134 218.8851 0004294 322.9431  37.1514 15.33253592411773
UWE-4                   
1 43880U 18111E   26156.04483588  .00034971  00000+0  73225-3 0  9990
2 43880  97.5859  83.8833 0007898  27.7618 332.4050 15.45332944408902
TIANYAN 01              
1 44881U 19093C   26156.33227741  .00000409  00000+0  52160-4 0  9996
2 44881  97.7532 228.8530 0014689 122.0666 238.1979 14.86497371349655
RS-44 & BREEZE-KM R/B   
1 44909U 19096E   26156.27794952  .00000008  00000+0 -15917-4 0  9991
2 44909  82.5219 347.6205 0217639 171.9532 188.5155 12.79748569300822
SALSAT                  
1 46495U 20068K   26155.97862976  .00008911  00000+0  31300-3 0  9995
2 46495  97.8851 158.3021 0009245 356.4519   3.6652 15.29615280313492
XW-3 (CAS-9)            
1 50466U 21131B   26156.32272340  .00000623  00000+0  20621-3 0  9996
2 50466  98.4977 248.7769 0005075 123.7603 236.4070 14.41346670233409
GREENCUBE (IO-117)      
1 53109U 22080E   26152.46502029 -.00000003  00000+0  00000+0 0  9996
2 53109  70.1435 303.7143 0008869 293.3663  66.6064  6.42583280 91055
UMKA 1 (RS40S)          
1 57172U 23091G   26156.11847472  .00007858  00000+0  35997-3 0  9994
2 57172  97.5052 214.8631 0013553 155.8474 204.3399 15.20674495162178
CUBESX-HSE 3 (RS42S)    
1 57178U 23091N   26156.21367235  .00012719  00000+0  42747-3 0  9998
2 57178  97.5091 221.6522 0012044 131.7027 228.5246 15.30897311162593
MONITOR-3 (RS58S)       
1 57180U 23091Q   26156.21198370  .00009945  00000+0  37046-3 0  9996
2 57180  97.5083 219.5722 0012901 137.9602 222.2629 15.27587804162465
MONITOR-4 (RS57S)       
1 57182U 23091S   26156.25724809  .00010691  00000+0  39684-3 0  9994
2 57182  97.5077 219.5883 0012853 138.1582 222.0642 15.27687205162474
MONITOR-2 (RS39S)       
1 57184U 23091U   26156.19057728  .00005111  00000+0  24857-3 0  9995
2 57184  97.5073 214.5517 0012155 148.2477 211.9493 15.18792604162135
SVYATOBOR 1 (RS60S)     
1 57187U 23091X   26156.19464909  .00009579  00000+0  37021-3 0  9990
2 57187  97.5089 219.9468 0010749 130.5159 229.7018 15.26401691162487
VIZARD-METEO (RS38S)    
1 57189U 23091Z   26156.28974326  .00016105  00000+0  46631-3 0  9991
2 57189  97.5091 225.5398 0008757 112.8959 247.3210 15.35628974162861
POLYTECH-UNIVERSE 3 (R*)
1 57191U 23091AB  26156.21935871  .00005106  00000+0  24656-3 0  9991
2 57191  97.5049 214.0850 0016041 165.5690 194.6006 15.18993737162135
UTMN 2 (RS27S)          
1 57203U 23091AP  26156.23783472  .00011937  00000+0  39135-3 0  9992
2 57203  97.5087 223.2959 0009484 119.2164 241.0027 15.31744114162710
